{
"type": "FeatureCollection",
"name": "line",
"crs": { "type": "name", "properties": { "name": "urn:ogc:def:crs:OGC:1.3:CRS84" } },
"features": [
{ "type": "Feature", "properties": { "id": null }, "geometry": { "type": "MultiLineString", "coordinates": [ [ [ 110.891797833383549, 21.670577570768263 ], [ 110.891697886246931, 21.677686525458679 ], [ 110.881564784242741, 21.677757970460171 ], [ 110.881503278312508, 21.681223010522327 ], [ 110.876513609723176, 21.681208721868384 ], [ 110.876479012637418, 21.68356633060051 ], [ 110.873818881155287, 21.683530609543865 ], [ 110.873865010602941, 21.684709399737674 ], [ 110.874487758146458, 21.684702255583719 ] ] ] } }
]
}
