{
"type": "FeatureCollection",
"name": "装置区",
"crs": { "type": "name", "properties": { "name": "urn:ogc:def:crs:OGC:1.3:CRS84" } },
"features": [
{ "type": "Feature", "properties": { "id": null }, "geometry": { "type": "MultiPolygon", "coordinates": [ [ [ [ 110.887309822537503, 21.673437270313563 ], [ 110.889139623961626, 21.673437270313563 ], [ 110.889139623961626, 21.672308401316247 ], [ 110.889677800851089, 21.672222664069235 ], [ 110.889677800851089, 21.671079495904053 ], [ 110.887279069572372, 21.671036626921541 ], [ 110.887309822537503, 21.673437270313563 ] ] ] ] } },
{ "type": "Feature", "properties": { "id": null }, "geometry": { "type": "MultiPolygon", "coordinates": [ [ [ [ 110.883158172247448, 21.673365823170677 ], [ 110.886956163438725, 21.673351533737854 ], [ 110.887017669368916, 21.672165505876244 ], [ 110.886325727653912, 21.672122637216624 ], [ 110.886279598206258, 21.671751108299347 ], [ 110.8849110912588, 21.671808266656623 ], [ 110.884880338293669, 21.672265532699122 ], [ 110.883188925212536, 21.672222664069235 ], [ 110.883158172247448, 21.673365823170677 ] ] ] ] } },
{ "type": "Feature", "properties": { "id": null }, "geometry": { "type": "MultiPolygon", "coordinates": [ [ [ [ 110.881835794747658, 21.673551585668534 ], [ 110.882927525009109, 21.673594453903284 ], [ 110.882958277974197, 21.671693949919415 ], [ 110.8819126771604, 21.671679660320891 ], [ 110.881835794747658, 21.673551585668534 ] ] ] ] } },
{ "type": "Feature", "properties": { "id": null }, "geometry": { "type": "MultiPolygon", "coordinates": [ [ [ [ 110.882912148526557, 21.675594957347439 ], [ 110.887079175299164, 21.675652114180785 ], [ 110.887094551781715, 21.673723058531039 ], [ 110.885187867944808, 21.67378021610655 ], [ 110.88514173849714, 21.674680444931777 ], [ 110.882942901491646, 21.674637577019954 ], [ 110.882912148526557, 21.675594957347439 ] ] ] ] } },
{ "type": "Feature", "properties": { "id": null }, "geometry": { "type": "MultiPolygon", "coordinates": [ [ [ [ 110.884957220706468, 21.677966946886237 ], [ 110.887079175299164, 21.67795265790949 ], [ 110.887094551781715, 21.681181930638438 ], [ 110.885080232566906, 21.681181930638438 ], [ 110.884957220706468, 21.677966946886237 ] ] ] ] } },
{ "type": "Feature", "properties": { "id": null }, "geometry": { "type": "MultiPolygon", "coordinates": [ [ [ [ 110.887309822537517, 21.681010466648761 ], [ 110.888755211897745, 21.680981889297318 ], [ 110.888755211897745, 21.68002454474928 ], [ 110.889800812711542, 21.680010255976516 ], [ 110.889708553816206, 21.677995524835485 ], [ 110.887386704950288, 21.678009813807993 ], [ 110.887309822537517, 21.681010466648761 ] ] ] ] } },
{ "type": "Feature", "properties": { "id": null }, "geometry": { "type": "MultiPolygon", "coordinates": [ [ [ [ 110.889846942159195, 21.681010466648761 ], [ 110.889877695124298, 21.680381763607951 ], [ 110.891061684281098, 21.680367474870607 ], [ 110.890969425385791, 21.681010466648761 ], [ 110.889846942159195, 21.681010466648761 ] ] ] ] } },
{ "type": "Feature", "properties": { "id": null }, "geometry": { "type": "MultiPolygon", "coordinates": [ [ [ [ 110.876592414196125, 21.680967600619468 ], [ 110.881374500270965, 21.680910445893907 ], [ 110.881328370823283, 21.678009813807993 ], [ 110.869734502976243, 21.677981235861569 ], [ 110.870580209516845, 21.678709971725191 ], [ 110.871794951638748, 21.680095988591845 ], [ 110.873578623615188, 21.680138854880386 ], [ 110.873640129545421, 21.680438918543171 ], [ 110.874824118702222, 21.680424629811501 ], [ 110.875469930969544, 21.680553228345627 ], [ 110.87651553178334, 21.680996177973753 ], [ 110.876592414196125, 21.680967600619468 ] ] ] ] } },
{ "type": "Feature", "properties": { "id": null }, "geometry": { "type": "MultiPolygon", "coordinates": [ [ [ [ 110.87626950806245, 21.684639744221595 ], [ 110.878760498236488, 21.684625455906438 ], [ 110.878668239341152, 21.683553828231712 ], [ 110.87626950806245, 21.683610981908888 ], [ 110.87626950806245, 21.684639744221595 ] ] ] ] } },
{ "type": "Feature", "properties": { "id": null }, "geometry": { "type": "MultiPolygon", "coordinates": [ [ [ [ 110.878468345067944, 21.685239852178736 ], [ 110.879929110910737, 21.685425599373218 ], [ 110.879652334224701, 21.687397362520862 ], [ 110.878176191899357, 21.687168753683803 ], [ 110.878468345067944, 21.685239852178736 ] ] ] ] } },
{ "type": "Feature", "properties": { "id": null }, "geometry": { "type": "MultiPolygon", "coordinates": [ [ [ [ 110.871718069225949, 21.682982290213186 ], [ 110.874332071260426, 21.68288227082688 ], [ 110.874224435882539, 21.681096198669096 ], [ 110.873640129545421, 21.680524650903511 ], [ 110.871948716464289, 21.680410341078392 ], [ 110.871410539574811, 21.679938812091436 ], [ 110.871056880476033, 21.679995967202331 ], [ 110.870718597859806, 21.679824501801676 ], [ 110.869980526697134, 21.680010255976505 ], [ 110.869780632423925, 21.679810213009077 ], [ 110.869027184778673, 21.680124566118952 ], [ 110.869503855737904, 21.681067621334652 ], [ 110.871287527714372, 21.68282511686068 ], [ 110.871610433848048, 21.682739385868881 ], [ 110.871718069225949, 21.682982290213186 ] ] ] ] } },
{ "type": "Feature", "properties": { "id": null }, "geometry": { "type": "MultiPolygon", "coordinates": [ [ [ [ 110.887386704950259, 21.677538276967599 ], [ 110.891676743583318, 21.677552565985422 ], [ 110.891615237653113, 21.674051714280779 ], [ 110.890661895734652, 21.674037424915941 ], [ 110.890692648699755, 21.673937399322369 ], [ 110.887509716810698, 21.673980267442399 ], [ 110.887386704950259, 21.677538276967599 ] ] ] ] } },
{ "type": "Feature", "properties": { "id": null }, "geometry": { "type": "MultiPolygon", "coordinates": [ [ [ [ 110.884987973671556, 21.677666878077051 ], [ 110.884972597189019, 21.675709270991476 ], [ 110.887125304746817, 21.6757664277795 ], [ 110.887140681229369, 21.677695456085793 ], [ 110.884987973671556, 21.677666878077051 ] ] ] ] } },
{ "type": "Feature", "properties": { "id": null }, "geometry": { "type": "MultiPolygon", "coordinates": [ [ [ [ 110.88175891233486, 21.681081910002582 ], [ 110.884803455880913, 21.681067621334652 ], [ 110.88483420884603, 21.677995524835474 ], [ 110.884219149543796, 21.677981235861562 ], [ 110.8841730200961, 21.677724034088868 ], [ 110.88175891233486, 21.677795479071758 ], [ 110.88175891233486, 21.681081910002582 ] ] ] ] } },
{ "type": "Feature", "properties": { "id": null }, "geometry": { "type": "MultiPolygon", "coordinates": [ [ [ [ 110.881728159369757, 21.677481120882124 ], [ 110.884726573468129, 21.677495409905628 ], [ 110.88474194995068, 21.675852162919046 ], [ 110.881805041782528, 21.675737849388323 ], [ 110.881728159369757, 21.677481120882124 ] ] ] ] } },
{ "type": "Feature", "properties": { "id": null }, "geometry": { "type": "MultiPolygon", "coordinates": [ [ [ [ 110.889278012304629, 21.673508717421043 ], [ 110.891584484688025, 21.673537296254114 ], [ 110.891430719862456, 21.670822281817831 ], [ 110.88975468326386, 21.670793702446588 ], [ 110.889708553816206, 21.672251243157241 ], [ 110.889308765269774, 21.672294111778623 ], [ 110.889278012304629, 21.673508717421043 ] ] ] ] } },
{ "type": "Feature", "properties": { "id": null }, "geometry": { "type": "MultiPolygon", "coordinates": [ [ [ [ 110.887409769674107, 21.685254140432971 ], [ 110.887486652086906, 21.68375386600265 ], [ 110.890254418946938, 21.683782442804397 ], [ 110.890377430807376, 21.684396842671244 ], [ 110.890638831010847, 21.684754050691854 ], [ 110.890623454528267, 21.685411311135997 ], [ 110.887394393191556, 21.685411311135997 ], [ 110.887409769674107, 21.685254140432971 ] ] ] ] } },
{ "type": "Feature", "properties": { "id": null }, "geometry": { "type": "MultiPolygon", "coordinates": [ [ [ [ 110.887471275604341, 21.685568481667577 ], [ 110.890577325080613, 21.685597058109444 ], [ 110.89065420749337, 21.686368619897472 ], [ 110.889839253917941, 21.68655436563677 ], [ 110.889485594819163, 21.687125889486474 ], [ 110.887502028569457, 21.687097313347834 ], [ 110.887471275604341, 21.685568481667577 ] ] ] ] } },
{ "type": "Feature", "properties": { "id": null }, "geometry": { "type": "MultiPolygon", "coordinates": [ [ [ [ 110.885349321011645, 21.686497213127101 ], [ 110.886087392174318, 21.686482924996149 ], [ 110.886179651069654, 21.685039816470738 ], [ 110.887256004848567, 21.685025528195251 ], [ 110.88730213429622, 21.683968191877639 ], [ 110.886564063133548, 21.683982480257963 ], [ 110.886548686650997, 21.684453996014053 ], [ 110.885426203424416, 21.684468284346213 ], [ 110.885349321011645, 21.686497213127101 ] ] ] ] } },
{ "type": "Feature", "properties": { "id": null }, "geometry": { "type": "MultiPolygon", "coordinates": [ [ [ [ 110.883996190546711, 21.6864114843201 ], [ 110.885257062116295, 21.68644006059478 ], [ 110.885195556186076, 21.684525437660682 ], [ 110.884073072959495, 21.684539725985751 ], [ 110.883996190546711, 21.6864114843201 ] ] ] ] } },
{ "type": "Feature", "properties": { "id": null }, "geometry": { "type": "MultiPolygon", "coordinates": [ [ [ [ 110.882381659878362, 21.686397196180643 ], [ 110.883857802203707, 21.686354331753765 ], [ 110.883811672756053, 21.68476833899426 ], [ 110.881305306099463, 21.684839780485031 ], [ 110.881320682582015, 21.685554193444521 ], [ 110.882304777465592, 21.685597058109444 ], [ 110.882381659878362, 21.686397196180643 ] ] ] ] } }
]
}
