{
"type": "FeatureCollection",
"name": "边界",
"crs": { "type": "name", "properties": { "name": "urn:ogc:def:crs:OGC:1.3:CRS84" } },
"features": [
{ "type": "Feature", "properties": { "id": 1 }, "geometry": { "type": "MultiPolygon", "coordinates": [ [ [ [ 110.881384170637148, 21.677766622000899 ], [ 110.867881636828443, 21.677745467587449 ], [ 110.866407416563263, 21.678422407277907 ], [ 110.868529371155972, 21.680794350287819 ], [ 110.870651325748625, 21.683109100406703 ], [ 110.870743584643975, 21.68448078663566 ], [ 110.869359701213966, 21.685823883415701 ], [ 110.872035209178662, 21.687909945079127 ], [ 110.872588762550677, 21.687367000430545 ], [ 110.87428017563181, 21.687909945079127 ], [ 110.877570742898712, 21.689138706991294 ], [ 110.879415920805428, 21.689795947432735 ], [ 110.879661944526319, 21.68768133705543 ], [ 110.881322604642307, 21.687738489095359 ], [ 110.889349128536395, 21.688167128672163 ], [ 110.889871928943322, 21.686652596459741 ], [ 110.890917529757075, 21.686423986440925 ], [ 110.890886776791973, 21.685338083897928 ], [ 110.894023579233334, 21.685538119191847 ], [ 110.894269602954253, 21.685366660385498 ], [ 110.89288571952423, 21.683337715684953 ], [ 110.891870871675536, 21.683423446320788 ], [ 110.891870871675536, 21.670677598692706 ], [ 110.88138411057254, 21.670677598692706 ], [ 110.881384170637148, 21.677765840571439 ], [ 110.881384170637148, 21.677766622000899 ] ] ] ] } }
]
}
